ORBCOMM FM20            
1 25416U 98046D   24260.41244712  .00003358  00000+0  11970-2 0  9992
2 25416  44.9947  36.6073 0001426 219.3408 140.7336 14.35832414364891
ORBCOMM FM16            
1 25417U 98046E   24260.62241626  .00004299  00000+0  14826-2 0  9995
2 25417  44.9946  30.3200 0002647 334.8133  25.2585 14.37036542364879
ORBCOMM FM15            
1 25418U 98046F   24260.39648673  .00004142  00000+0  14389-2 0  9994
2 25418  44.9972  35.7693 0002217 336.9466  23.1282 14.36725923364844
ORBCOMM FM14            
1 25419U 98046G   24260.40332454  .00004350  00000+0  15020-2 0  9998
2 25419  44.9965  34.6448 0001738 298.7049  61.3624 14.36959134364805
ORBCOMM FM13            
1 25420U 98046H   24260.37994830  .00004205  00000+0  14786-2 0  9995
2 25420  44.9976  40.4121 0003755 322.7526  37.3060 14.36096290363857
ORBCOMM FM21            
1 25475U 98053A   24260.33986030  .00002674  00000+0  96103-3 0  9994
2 25475  45.0070 125.1395 0000536 324.9698  35.1114 14.35941037357863
ORBCOMM FM22            
1 25476U 98053B   24260.61293808  .00003303  00000+0  11603-2 0  9991
2 25476  45.0067 120.5523 0001955 287.3430  72.7204 14.36601296357907
ORBCOMM FM23            
1 25477U 98053C   24260.64219372  .00002584  00000+0  92934-3 0  9996
2 25477  45.0074 126.0912 0001403 294.1714  65.8987 14.35992126358050
